<?xml version="1.0" encoding="UTF-8"?>
<ndm xmlns:xsi="http://www.w3.org/2001/XMLSchema-instance" xsi:noNamespaceSchemaLocation="https://sanaregistry.org/r/ndmxml_unqualified/ndmxml-2.0.0-master-2.0.xsd">
<omm id="CCSDS_OMM_VERS" version="2.0">
<header><CREATION_DATE/><ORIGINATOR/></header><body><segment><metadata><OBJECT_NAME>KUIPER-00053</OBJECT_NAME><OBJECT_ID>2025-134P</OBJECT_ID><CENTER_NAME>EARTH</CENTER_NAME><REF_FRAME>TEME</REF_FRAME><TIME_SYSTEM>UTC</TIME_SYSTEM><MEAN_ELEMENT_THEORY>SGP4</MEAN_ELEMENT_THEORY></metadata><data><meanElements><EPOCH>2025-07-26T15:06:23.351616</EPOCH><MEAN_MOTION>15.36493278</MEAN_MOTION><ECCENTRICITY>.0001887</ECCENTRICITY><INCLINATION>51.8770</INCLINATION><RA_OF_ASC_NODE>170.8269</RA_OF_ASC_NODE><ARG_OF_PERICENTER>201.2685</ARG_OF_PERICENTER><MEAN_ANOMALY>158.8223</MEAN_ANOMALY></meanElements><tleParameters><EPHEMERIS_TYPE>0</EPHEMERIS_TYPE><CLASSIFICATION_TYPE>U</CLASSIFICATION_TYPE><NORAD_CAT_ID>64513</NORAD_CAT_ID><ELEMENT_SET_NO>999</ELEMENT_SET_NO><REV_AT_EPOCH>634</REV_AT_EPOCH><BSTAR>.83044E-3</BSTAR><MEAN_MOTION_DOT>.29763E-3</MEAN_MOTION_DOT><MEAN_MOTION_DDOT>0</MEAN_MOTION_DDOT></tleParameters></data></segment></body></omm>
<omm id="CCSDS_OMM_VERS" version="2.0">
<header><CREATION_DATE/><ORIGINATOR/></header><body><segment><metadata><OBJECT_NAME>KUIPER-00054</OBJECT_NAME><OBJECT_ID>2025-134Q</OBJECT_ID><CENTER_NAME>EARTH</CENTER_NAME><REF_FRAME>TEME</REF_FRAME><TIME_SYSTEM>UTC</TIME_SYSTEM><MEAN_ELEMENT_THEORY>SGP4</MEAN_ELEMENT_THEORY></metadata><data><meanElements><EPOCH>2025-07-26T15:12:27.381600</EPOCH><MEAN_MOTION>15.36331148</MEAN_MOTION><ECCENTRICITY>.0002681</ECCENTRICITY><INCLINATION>51.8770</INCLINATION><RA_OF_ASC_NODE>170.8557</RA_OF_ASC_NODE><ARG_OF_PERICENTER>210.4722</ARG_OF_PERICENTER><MEAN_ANOMALY>149.6109</MEAN_ANOMALY></meanElements><tleParameters><EPHEMERIS_TYPE>0</EPHEMERIS_TYPE><CLASSIFICATION_TYPE>U</CLASSIFICATION_TYPE><NORAD_CAT_ID>64514</NORAD_CAT_ID><ELEMENT_SET_NO>999</ELEMENT_SET_NO><REV_AT_EPOCH>634</REV_AT_EPOCH><BSTAR>.10928E-2</BSTAR><MEAN_MOTION_DOT>.39133E-3</MEAN_MOTION_DOT><MEAN_MOTION_DDOT>0</MEAN_MOTION_DDOT></tleParameters></data></segment></body></omm>
<omm id="CCSDS_OMM_VERS" version="2.0">
<header><CREATION_DATE/><ORIGINATOR/></header><body><segment><metadata><OBJECT_NAME>KUIPER-00055</OBJECT_NAME><OBJECT_ID>2025-134R</OBJECT_ID><CENTER_NAME>EARTH</CENTER_NAME><REF_FRAME>TEME</REF_FRAME><TIME_SYSTEM>UTC</TIME_SYSTEM><MEAN_ELEMENT_THEORY>SGP4</MEAN_ELEMENT_THEORY></metadata><data><meanElements><EPOCH>2025-07-26T07:04:30.401184</EPOCH><MEAN_MOTION>15.36946180</MEAN_MOTION><ECCENTRICITY>.0000621</ECCENTRICITY><INCLINATION>51.8777</INCLINATION><RA_OF_ASC_NODE>172.3388</RA_OF_ASC_NODE><ARG_OF_PERICENTER>90.1183</ARG_OF_PERICENTER><MEAN_ANOMALY>269.9875</MEAN_ANOMALY></meanElements><tleParameters><EPHEMERIS_TYPE>0</EPHEMERIS_TYPE><CLASSIFICATION_TYPE>U</CLASSIFICATION_TYPE><NORAD_CAT_ID>64515</NORAD_CAT_ID><ELEMENT_SET_NO>999</ELEMENT_SET_NO><REV_AT_EPOCH>629</REV_AT_EPOCH><BSTAR>.71895E-3</BSTAR><MEAN_MOTION_DOT>.26084E-3</MEAN_MOTION_DOT><MEAN_MOTION_DDOT>0</MEAN_MOTION_DDOT></tleParameters></data></segment></body></omm>
<omm id="CCSDS_OMM_VERS" version="2.0">
<header><CREATION_DATE/><ORIGINATOR/></header><body><segment><metadata><OBJECT_NAME>KUIPER-00056</OBJECT_NAME><OBJECT_ID>2025-134S</OBJECT_ID><CENTER_NAME>EARTH</CENTER_NAME><REF_FRAME>TEME</REF_FRAME><TIME_SYSTEM>UTC</TIME_SYSTEM><MEAN_ELEMENT_THEORY>SGP4</MEAN_ELEMENT_THEORY></metadata><data><meanElements><EPOCH>2025-07-26T21:34:04.645632</EPOCH><MEAN_MOTION>15.36062678</MEAN_MOTION><ECCENTRICITY>.0003159</ECCENTRICITY><INCLINATION>51.8725</INCLINATION><RA_OF_ASC_NODE>169.6266</RA_OF_ASC_NODE><ARG_OF_PERICENTER>213.3566</ARG_OF_PERICENTER><MEAN_ANOMALY>146.7221</MEAN_ANOMALY></meanElements><tleParameters><EPHEMERIS_TYPE>0</EPHEMERIS_TYPE><CLASSIFICATION_TYPE>U</CLASSIFICATION_TYPE><NORAD_CAT_ID>64516</NORAD_CAT_ID><ELEMENT_SET_NO>999</ELEMENT_SET_NO><REV_AT_EPOCH>638</REV_AT_EPOCH><BSTAR>.87311E-3</BSTAR><MEAN_MOTION_DOT>.30885E-3</MEAN_MOTION_DOT><MEAN_MOTION_DDOT>0</MEAN_MOTION_DDOT></tleParameters></data></segment></body></omm>
<omm id="CCSDS_OMM_VERS" version="2.0">
<header><CREATION_DATE/><ORIGINATOR/></header><body><segment><metadata><OBJECT_NAME>KUIPER-00057</OBJECT_NAME><OBJECT_ID>2025-134T</OBJECT_ID><CENTER_NAME>EARTH</CENTER_NAME><REF_FRAME>TEME</REF_FRAME><TIME_SYSTEM>UTC</TIME_SYSTEM><MEAN_ELEMENT_THEORY>SGP4</MEAN_ELEMENT_THEORY></metadata><data><meanElements><EPOCH>2025-07-26T22:00:05.548896</EPOCH><MEAN_MOTION>15.35080035</MEAN_MOTION><ECCENTRICITY>.0006414</ECCENTRICITY><INCLINATION>51.8701</INCLINATION><RA_OF_ASC_NODE>169.7357</RA_OF_ASC_NODE><ARG_OF_PERICENTER>223.5456</ARG_OF_PERICENTER><MEAN_ANOMALY>136.5024</MEAN_ANOMALY></meanElements><tleParameters><EPHEMERIS_TYPE>0</EPHEMERIS_TYPE><CLASSIFICATION_TYPE>U</CLASSIFICATION_TYPE><NORAD_CAT_ID>64517</NORAD_CAT_ID><ELEMENT_SET_NO>999</ELEMENT_SET_NO><REV_AT_EPOCH>638</REV_AT_EPOCH><BSTAR>.818E-3</BSTAR><MEAN_MOTION_DOT>.28009E-3</MEAN_MOTION_DOT><MEAN_MOTION_DDOT>0</MEAN_MOTION_DDOT></tleParameters></data></segment></body></omm>
<omm id="CCSDS_OMM_VERS" version="2.0">
<header><CREATION_DATE/><ORIGINATOR/></header><body><segment><metadata><OBJECT_NAME>KUIPER-00058</OBJECT_NAME><OBJECT_ID>2025-134U</OBJECT_ID><CENTER_NAME>EARTH</CENTER_NAME><REF_FRAME>TEME</REF_FRAME><TIME_SYSTEM>UTC</TIME_SYSTEM><MEAN_ELEMENT_THEORY>SGP4</MEAN_ELEMENT_THEORY></metadata><data><meanElements><EPOCH>2025-07-26T04:34:09.165504</EPOCH><MEAN_MOTION>15.35702682</MEAN_MOTION><ECCENTRICITY>.0004517</ECCENTRICITY><INCLINATION>51.8710</INCLINATION><RA_OF_ASC_NODE>173.1254</RA_OF_ASC_NODE><ARG_OF_PERICENTER>222.1897</ARG_OF_PERICENTER><MEAN_ANOMALY>137.8741</MEAN_ANOMALY></meanElements><tleParameters><EPHEMERIS_TYPE>0</EPHEMERIS_TYPE><CLASSIFICATION_TYPE>U</CLASSIFICATION_TYPE><NORAD_CAT_ID>64518</NORAD_CAT_ID><ELEMENT_SET_NO>999</ELEMENT_SET_NO><REV_AT_EPOCH>627</REV_AT_EPOCH><BSTAR>.62942E-3</BSTAR><MEAN_MOTION_DOT>.21876E-3</MEAN_MOTION_DOT><MEAN_MOTION_DDOT>0</MEAN_MOTION_DDOT></tleParameters></data></segment></body></omm>
<omm id="CCSDS_OMM_VERS" version="2.0">
<header><CREATION_DATE/><ORIGINATOR/></header><body><segment><metadata><OBJECT_NAME>KUIPER-00059</OBJECT_NAME><OBJECT_ID>2025-134V</OBJECT_ID><CENTER_NAME>EARTH</CENTER_NAME><REF_FRAME>TEME</REF_FRAME><TIME_SYSTEM>UTC</TIME_SYSTEM><MEAN_ELEMENT_THEORY>SGP4</MEAN_ELEMENT_THEORY></metadata><data><meanElements><EPOCH>2025-07-26T14:55:16.408416</EPOCH><MEAN_MOTION>15.36877455</MEAN_MOTION><ECCENTRICITY>.0001309</ECCENTRICITY><INCLINATION>51.8774</INCLINATION><RA_OF_ASC_NODE>170.7754</RA_OF_ASC_NODE><ARG_OF_PERICENTER>145.0195</ARG_OF_PERICENTER><MEAN_ANOMALY>215.0878</MEAN_ANOMALY></meanElements><tleParameters><EPHEMERIS_TYPE>0</EPHEMERIS_TYPE><CLASSIFICATION_TYPE>U</CLASSIFICATION_TYPE><NORAD_CAT_ID>64519</NORAD_CAT_ID><ELEMENT_SET_NO>999</ELEMENT_SET_NO><REV_AT_EPOCH>634</REV_AT_EPOCH><BSTAR>.62361E-3</BSTAR><MEAN_MOTION_DOT>.22512E-3</MEAN_MOTION_DOT><MEAN_MOTION_DDOT>0</MEAN_MOTION_DDOT></tleParameters></data></segment></body></omm>
<omm id="CCSDS_OMM_VERS" version="2.0">
<header><CREATION_DATE/><ORIGINATOR/></header><body><segment><metadata><OBJECT_NAME>KUIPER-00060</OBJECT_NAME><OBJECT_ID>2025-134W</OBJECT_ID><CENTER_NAME>EARTH</CENTER_NAME><REF_FRAME>TEME</REF_FRAME><TIME_SYSTEM>UTC</TIME_SYSTEM><MEAN_ELEMENT_THEORY>SGP4</MEAN_ELEMENT_THEORY></metadata><data><meanElements><EPOCH>2025-07-26T15:02:11.182848</EPOCH><MEAN_MOTION>15.36686442</MEAN_MOTION><ECCENTRICITY>.0001793</ECCENTRICITY><INCLINATION>51.8768</INCLINATION><RA_OF_ASC_NODE>170.8108</RA_OF_ASC_NODE><ARG_OF_PERICENTER>171.9809</ARG_OF_PERICENTER><MEAN_ANOMALY>188.1206</MEAN_ANOMALY></meanElements><tleParameters><EPHEMERIS_TYPE>0</EPHEMERIS_TYPE><CLASSIFICATION_TYPE>U</CLASSIFICATION_TYPE><NORAD_CAT_ID>64520</NORAD_CAT_ID><ELEMENT_SET_NO>999</ELEMENT_SET_NO><REV_AT_EPOCH>633</REV_AT_EPOCH><BSTAR>.75668E-3</BSTAR><MEAN_MOTION_DOT>.27246E-3</MEAN_MOTION_DOT><MEAN_MOTION_DDOT>0</MEAN_MOTION_DDOT></tleParameters></data></segment></body></omm>

</ndm>
