KUIPER-00053            
1 64513U 25134P   25207.62943694  .00029763  00000+0  83044-3 0  9991
2 64513  51.8770 170.8269 0001887 201.2685 158.8223 15.36493278  6340
KUIPER-00054            
1 64514U 25134Q   25207.63365025  .00039133  00000+0  10928-2 0  9991
2 64514  51.8770 170.8557 0002681 210.4722 149.6109 15.36331148  6346
KUIPER-00055            
1 64515U 25134R   25207.29479631  .00026084  00000+0  71895-3 0  9995
2 64515  51.8777 172.3388 0000621  90.1183 269.9875 15.36946180  6297
KUIPER-00056            
1 64516U 25134S   25207.89866488  .00030885  00000+0  87311-3 0  9996
2 64516  51.8725 169.6266 0003159 213.3566 146.7221 15.36062678  6386
KUIPER-00057            
1 64517U 25134T   25207.91673089  .00028009  00000+0  81800-3 0  9995
2 64517  51.8701 169.7357 0006414 223.5456 136.5024 15.35080035  6385
KUIPER-00058            
1 64518U 25134U   25207.19038386  .00021876  00000+0  62942-3 0  9992
2 64518  51.8710 173.1254 0004517 222.1897 137.8741 15.35702682  6274
KUIPER-00059            
1 64519U 25134V   25207.62171769  .00022512  00000+0  62361-3 0  9997
2 64519  51.8774 170.7754 0001309 145.0195 215.0878 15.36877455  6343
KUIPER-00060            
1 64520U 25134W   25207.62651832  .00027246  00000+0  75668-3 0  9996
2 64520  51.8768 170.8108 0001793 171.9809 188.1206 15.36686442  6337
